{"type": "FeatureCollection", "features": [ {"type": "Feature", "properties": {"norad_id": 32384, "name": "GPS BIIRM-5 (PRN 29)", "group": "gps-ops", "lat": 41.38934455846358, "lon": -40.422449098045014, "alt_km": 20203.623175782373, "timestamp": "2025-12-08T03:50:07.256249+00:00", "meta": {"OBJECT_NAME": "GPS BIIRM-5 (PRN 29)", "OBJECT_ID": "2007-062A", "EPOCH": "2025-12-07T07:51:30.252672", "MEAN_MOTION": 2.00576914, "ECCENTRICITY": 0.00322165, "INCLINATION": 55.187, "RA_OF_ASC_NODE": 281.863, "ARG_OF_PERICENTER": 162.6337, "MEAN_ANOMALY": 10.2823, "EPHEMERIS_TYPE": 0, "CLASSIFICATION_TYPE": "U", "NORAD_CAT_ID": 32384, "ELEMENT_SET_NO": 999, "REV_AT_EPOCH": 13166, "BSTAR": 0, "MEAN_MOTION_DOT": -4e-07, "MEAN_MOTION_DDOT": 0}, "tle": {"line1": "1 32384U 07062A   25341.32743348 -.00000040  00000+0  00000+0 0  9997", "line2": "2 32384  55.1870 281.8630 0032216 162.6337  10.2823  2.00576914131665"}}, "geometry": {"type": "Point", "coordinates": [-40.422449098045014, 41.38934455846358]}}, {"type": "Feature", "properties": {"norad_id": 32711, "name": "GPS BIIRM-6 (PRN 07)", "group": "gps-ops", "lat": -15.508285686204779, "lon": 146.110657801631, "alt_km": 20228.690010376802, "timestamp": "2025-12-08T03:50:07.256260+00:00", "meta": {"OBJECT_NAME": "GPS BIIRM-6 (PRN 07)", "OBJECT_ID": "2008-012A", "EPOCH": "2025-12-06T16:34:57.264384", "MEAN_MOTION": 2.00565269, "ECCENTRICITY": 0.02022029, "INCLINATION": 54.4762, "RA_OF_ASC_NODE": 157.6144, "ARG_OF_PERICENTER": 244.8815, "MEAN_ANOMALY": 113.0202, "EPHEMERIS_TYPE": 0, "CLASSIFICATION_TYPE": "U", "NORAD_CAT_ID": 32711, "ELEMENT_SET_NO": 999, "REV_AT_EPOCH": 12989, "BSTAR": 0, "MEAN_MOTION_DOT": 6.1e-07, "MEAN_MOTION_DDOT": 0}, "tle": {"line1": "1 32711U 08012A   25340.69094056  .00000061  00000+0  00000+0 0  9993", "line2": "2 32711  54.4762 157.6144 0202202 244.8815 113.0202  2.00565269129895"}}, "geometry": {"type": "Point", "coordinates": [146.110657801631, -15.508285686204779]}}, {"type": "Feature", "properties": {"norad_id": 35752, "name": "GPS BIIRM-8 (PRN 05)", "group": "gps-ops", "lat": -1.757386557528393, "lon": 33.80043186602626, "alt_km": 20167.433972833536, "timestamp": "2025-12-08T03:50:07.256271+00:00", "meta": {"OBJECT_NAME": "GPS BIIRM-8 (PRN 05)", "OBJECT_ID": "2009-043A", "EPOCH": "2025-12-07T06:57:18.338976", "MEAN_MOTION": 2.00565889, "ECCENTRICITY": 0.00519498, "INCLINATION": 56.0873, "RA_OF_ASC_NODE": 34.9981, "ARG_OF_PERICENTER": 82.001, "MEAN_ANOMALY": 8.335, "EPHEMERIS_TYPE": 0, "CLASSIFICATION_TYPE": "U", "NORAD_CAT_ID": 35752, "ELEMENT_SET_NO": 999, "REV_AT_EPOCH": 11951, "BSTAR": 0, "MEAN_MOTION_DOT": -7.6e-07, "MEAN_MOTION_DDOT": 0}, "tle": {"line1": "1 35752U 09043A   25341.28979559 -.00000076  00000+0  00000+0 0  9999", "line2": "2 35752  56.0873  34.9981 0051949  82.0010   8.3350  2.00565889119515"}}, "geometry": {"type": "Point", "coordinates": [33.80043186602626, -1.757386557528393]}}, {"type": "Feature", "properties": {"norad_id": 36585, "name": "GPS BIIF-1  (PRN 25)", "group": "gps-ops", "lat": 45.70195441525858, "lon": -11.160775701359618, "alt_km": 19974.51630272872, "timestamp": "2025-12-08T03:50:07.256282+00:00", "meta": {"OBJECT_NAME": "GPS BIIF-1  (PRN 25)", "OBJECT_ID": "2010-022A", "EPOCH": "2025-12-07T05:49:32.737728", "MEAN_MOTION": 2.00552848, "ECCENTRICITY": 0.01258847, "INCLINATION": 54.3011, "RA_OF_ASC_NODE": 216.2957, "ARG_OF_PERICENTER": 65.0144, "MEAN_ANOMALY": 109.9417, "EPHEMERIS_TYPE": 0, "CLASSIFICATION_TYPE": "U", "NORAD_CAT_ID": 36585, "ELEMENT_SET_NO": 999, "REV_AT_EPOCH": 11374, "BSTAR": 0, "MEAN_MOTION_DOT": 3.7e-07, "MEAN_MOTION_DDOT": 0}, "tle": {"line1": "1 36585U 10022A   25341.24274002  .00000037  00000+0  00000+0 0  9996", "line2": "2 36585  54.3011 216.2957 0125884  65.0144 109.9417  2.00552848113744"}}, "geometry": {"type": "Point", "coordinates": [-11.160775701359618, 45.70195441525858]}}, {"type": "Feature", "properties": {"norad_id": 38833, "name": "GPS BIIF-3  (PRN 24)", "group": "gps-ops", "lat": -27.74457408215556, "lon": -5.704271508961872, "alt_km": 20593.095217051574, "timestamp": "2025-12-08T03:50:07.256293+00:00", "meta": {"OBJECT_NAME": "GPS BIIF-3  (PRN 24)", "OBJECT_ID": "2012-053A", "EPOCH": "2025-12-06T20:50:20.740704", "MEAN_MOTION": 2.0056489, "ECCENTRICITY": 0.01756175, "INCLINATION": 53.5566, "RA_OF_ASC_NODE": 151.4791, "ARG_OF_PERICENTER": 63.9122, "MEAN_ANOMALY": 297.8848, "EPHEMERIS_TYPE": 0, "CLASSIFICATION_TYPE": "U", "NORAD_CAT_ID": 38833, "ELEMENT_SET_NO": 999, "REV_AT_EPOCH": 9558, "BSTAR": 0, "MEAN_MOTION_DOT": 5.4e-07, "MEAN_MOTION_DDOT": 0}, "tle": {"line1": "1 38833U 12053A   25340.86829561  .00000054  00000+0  00000+0 0  9992", "line2": "2 38833  53.5566 151.4791 0175617  63.9122 297.8848  2.00564890 95582"}}, "geometry": {"type": "Point", "coordinates": [-5.704271508961872, -27.74457408215556]}}, {"type": "Feature", "properties": {"norad_id": 39166, "name": "GPS BIIF-4  (PRN 27)", "group": "gps-ops", "lat": -38.4193939319616, "lon": -117.46019198688951, "alt_km": 20233.41933825841, "timestamp": "2025-12-08T03:50:07.256304+00:00", "meta": {"OBJECT_NAME": "GPS BIIF-4  (PRN 27)", "OBJECT_ID": "2013-023A", "EPOCH": "2025-12-07T05:32:23.727552", "MEAN_MOTION": 2.00565061, "ECCENTRICITY": 0.01375526, "INCLINATION": 54.6569, "RA_OF_ASC_NODE": 276.7922, "ARG_OF_PERICENTER": 48.5552, "MEAN_ANOMALY": 312.629, "EPHEMERIS_TYPE": 0, "CLASSIFICATION_TYPE": "U", "NORAD_CAT_ID": 39166, "ELEMENT_SET_NO": 999, "REV_AT_EPOCH": 9203, "BSTAR": 0, "MEAN_MOTION_DOT": -3.4e-07, "MEAN_MOTION_DDOT": 0}, "tle": {"line1": "1 39166U 13023A   25341.23083018 -.00000034  00000+0  00000+0 0  9990", "line2": "2 39166  54.6569 276.7922 0137552  48.5552 312.6290  2.00565061 92031"}}, "geometry": {"type": "Point", "coordinates": [-117.46019198688951, -38.4193939319616]}}, {"type": "Feature", "properties": {"norad_id": 39533, "name": "GPS BIIF-5  (PRN 30)", "group": "gps-ops", "lat": -34.56005680848493, "lon": 126.58572875624606, "alt_km": 20179.219545997425, "timestamp": "2025-12-08T03:50:07.256316+00:00", "meta": {"OBJECT_NAME": "GPS BIIF-5  (PRN 30)", "OBJECT_ID": "2014-008A", "EPOCH": "2025-12-06T17:26:15.806112", "MEAN_MOTION": 2.00574018, "ECCENTRICITY": 0.00790593, "INCLINATION": 53.6301, "RA_OF_ASC_NODE": 157.1699, "ARG_OF_PERICENTER": 226.4148, "MEAN_ANOMALY": 132.9387, "EPHEMERIS_TYPE": 0, "CLASSIFICATION_TYPE": "U", "NORAD_CAT_ID": 39533, "ELEMENT_SET_NO": 999, "REV_AT_EPOCH": 8582, "BSTAR": 0, "MEAN_MOTION_DOT": 5.9e-07, "MEAN_MOTION_DDOT": 0}, "tle": {"line1": "1 39533U 14008A   25340.72657183  .00000059  00000+0  00000+0 0  9991", "line2": "2 39533  53.6301 157.1699 0079059 226.4148 132.9387  2.00574018 85821"}}, "geometry": {"type": "Point", "coordinates": [126.58572875624606, -34.56005680848493]}}, {"type": "Feature", "properties": {"norad_id": 39741, "name": "GPS BIIF-6  (PRN 06)", "group": "gps-ops", "lat": 51.37052452114733, "lon": 103.24916772219632, "alt_km": 20268.107864190206, "timestamp": "2025-12-08T03:50:07.256332+00:00", "meta": {"OBJECT_NAME": "GPS BIIF-6  (PRN 06)", "OBJECT_ID": "2014-026A", "EPOCH": "2025-12-07T00:13:30.638496", "MEAN_MOTION": 2.00561616, "ECCENTRICITY": 0.00390271, "INCLINATION": 56.5858, "RA_OF_ASC_NODE": 338.9993, "ARG_OF_PERICENTER": 318.3547, "MEAN_ANOMALY": 41.3608, "EPHEMERIS_TYPE": 0, "CLASSIFICATION_TYPE": "U", "NORAD_CAT_ID": 39741, "ELEMENT_SET_NO": 999, "REV_AT_EPOCH": 8468, "BSTAR": 0, "MEAN_MOTION_DOT": -8e-07, "MEAN_MOTION_DDOT": 0}, "tle": {"line1": "1 39741U 14026A   25341.00938239 -.00000080  00000+0  00000+0 0  9993", "line2": "2 39741  56.5858 338.9993 0039027 318.3547  41.3608  2.00561616 84684"}}, "geometry": {"type": "Point", "coordinates": [103.24916772219632, 51.37052452114733]}}, {"type": "Feature", "properties": {"norad_id": 40105, "name": "GPS BIIF-7  (PRN 09)", "group": "gps-ops", "lat": 37.079278644815716, "lon": 127.70696674850866, "alt_km": 20150.49911770297, "timestamp": "2025-12-08T03:50:07.256343+00:00", "meta": {"OBJECT_NAME": "GPS BIIF-7  (PRN 09)", "OBJECT_ID": "2014-045A", "EPOCH": "2025-12-05T14:26:16.975968", "MEAN_MOTION": 2.00571979, "ECCENTRICITY": 0.00328896, "INCLINATION": 55.2248, "RA_OF_ASC_NODE": 96.1837, "ARG_OF_PERICENTER": 119.6741, "MEAN_ANOMALY": 240.6258, "EPHEMERIS_TYPE": 0, "CLASSIFICATION_TYPE": "U", "NORAD_CAT_ID": 40105, "ELEMENT_SET_NO": 999, "REV_AT_EPOCH": 8219, "BSTAR": 0, "MEAN_MOTION_DOT": -1.2e-07, "MEAN_MOTION_DDOT": 0}, "tle": {"line1": "1 40105U 14045A   25339.60158537 -.00000012  00000+0  00000+0 0  9993", "line2": "2 40105  55.2248  96.1837 0032889 119.6741 240.6258  2.00571979 82198"}}, "geometry": {"type": "Point", "coordinates": [127.70696674850866, 37.079278644815716]}}, {"type": "Feature", "properties": {"norad_id": 40294, "name": "GPS BIIF-8  (PRN 03)", "group": "gps-ops", "lat": 34.88244724363431, "lon": -168.7332015730764, "alt_km": 20115.454891112553, "timestamp": "2025-12-08T03:50:07.256354+00:00", "meta": {"OBJECT_NAME": "GPS BIIF-8  (PRN 03)", "OBJECT_ID": "2014-068A", "EPOCH": "2025-12-05T23:27:53.798400", "MEAN_MOTION": 2.00564264, "ECCENTRICITY": 0.00608121, "INCLINATION": 56.8528, "RA_OF_ASC_NODE": 38.4077, "ARG_OF_PERICENTER": 69.3337, "MEAN_ANOMALY": 291.3749, "EPHEMERIS_TYPE": 0, "CLASSIFICATION_TYPE": "U", "NORAD_CAT_ID": 40294, "ELEMENT_SET_NO": 999, "REV_AT_EPOCH": 8133, "BSTAR": 0, "MEAN_MOTION_DOT": -6.8e-07, "MEAN_MOTION_DDOT": 0}, "tle": {"line1": "1 40294U 14068A   25339.97770600 -.00000068  00000+0  00000+0 0  9999", "line2": "2 40294  56.8528  38.4077 0060812  69.3337 291.3749  2.00564264 81331"}}, "geometry": {"type": "Point", "coordinates": [-168.7332015730764, 34.88244724363431]}}]}